OBJECT_NAME,OBJECT_ID,EPOCH,MEAN_MOTION,ECCENTRICITY,INCLINATION,RA_OF_ASC_NODE,ARG_OF_PERICENTER,MEAN_ANOMALY,EPHEMERIS_TYPE,CLASSIFICATION_TYPE,NORAD_CAT_ID,ELEMENT_SET_NO,REV_AT_EPOCH,BSTAR,MEAN_MOTION_DOT,MEAN_MOTION_DDOT
FENGYUN 1C DEB,1999-025ACA,2024-12-30T15:17:18.281760,14.14019900,.0082322,99.0547,65.8829,301.8777,57.4403,0,U,30363,999,91913,.45211E-2,.8839E-4,0
FENGYUN 1C DEB,1999-025ACB,2024-12-28T07:34:47.535744,14.09657468,.0355986,98.1262,304.4386,255.0117,262.7262,0,U,30364,999,90704,.57738E-2,.18269E-3,0
FENGYUN 1C DEB,1999-025ACC,2024-12-31T23:07:48.565056,14.18581505,.01691,98.6045,4.9648,29.6813,0.0294,0,U,30365,999,92709,.96791E-3,.2267E-4,0
FENGYUN 1C DEB,1999-025ACD,2024-12-30T16:16:56.407296,14.31977577,.0064391,98.9326,266.8633,153.1616,237.5395,0,U,30366,999,93353,.15809E-2,.4294E-4,0
FENGYUN 1C DEB,1999-025ACF,2024-12-31T18:31:18.890688,13.75029713,.0189077,99.1651,119.6116,140.0419,16.8562,0,U,30368,999,89906,.10119E-2,.106E-4,0
FENGYUN 1C DEB,1999-025ACG,2024-12-31T18:30:03.987072,14.11618746,.0101026,98.7117,7.7635,99.3097,73.7252,0,U,30369,999,92364,.60726E-3,.1116E-4,0
FENGYUN 1C DEB,1999-025ACH,2024-12-31T02:31:32.232288,14.16948562,.0103387,99.0852,48.5109,222.2093,164.3626,0,U,30370,999,92181,.36038E-2,.7585E-4,0
FENGYUN 1C DEB,1999-025ACJ,2024-12-31T14:45:51.102720,14.27809371,.0007589,98.6077,48.6088,267.4269,260.5723,0,U,30371,999,92973,.32065E-2,.7892E-4,0
FENGYUN 1C DEB,1999-025ACM,2024-12-31T18:53:15.194688,14.54237925,.0044758,99.2931,184.1882,130.9355,241.6502,0,U,30374,999,93881,.57193E-2,.24588E-3,0
FENGYUN 1C DEB,1999-025ACQ,2024-12-31T13:00:01.728288,13.98659601,.0119696,98.9232,29.5991,144.4389,10.8149,0,U,30377,999,91366,.11098E-2,.1653E-4,0
FENGYUN 1C DEB,1999-025ACS,2024-12-31T20:29:07.076832,14.07535453,.0036825,98.7797,25.5489,172.7208,0.8777,0,U,30379,999,91950,.80071E-3,.1316E-4,0
FENGYUN 1C DEB,1999-025ACT,2024-12-31T13:01:00.312672,14.49380029,.0181394,98.9535,27.0750,178.1649,182.0248,0,U,30380,999,94562,.79363E-3,.3686E-4,0
FENGYUN 1C DEB,1999-025ACU,2024-12-29T07:45:06.287616,14.11012966,.0054546,98.8443,38.6607,341.9478,17.9755,0,U,30381,999,87249,.24044E-2,.434E-4,0
FENGYUN 1C DEB,1999-025ACV,2024-12-31T09:38:27.261024,14.23054803,.0159634,98.5344,49.2212,287.5895,81.2875,0,U,30382,999,92605,.28824E-2,.7369E-4,0
FENGYUN 1C DEB,1999-025ACY,2024-12-31T22:33:23.048640,14.37745607,.0126761,99.0867,1.4660,224.3707,166.8719,0,U,30385,999,93798,.10121E-2,.329E-4,0
FENGYUN 1C DEB,1999-025ACZ,2024-12-31T18:10:42.892032,13.53966438,.0312107,98.6954,296.7387,331.5625,55.1313,0,U,30386,999,88144,.10237E-1,.9422E-4,0
FENGYUN 1C DEB,1999-025ADA,2024-12-31T20:08:22.375968,14.14488874,.000117,98.6784,25.8673,59.6007,115.1255,0,U,30387,999,92433,.95615E-3,.179E-4,0
FENGYUN 1C DEB,1999-025ADB,2024-12-31T18:10:58.865664,14.18273797,.0225078,98.6289,30.7123,341.9787,68.7869,0,U,30388,999,92525,.17392E-2,.4557E-4,0
FENGYUN 1C DEB,1999-025ADC,2024-12-31T16:03:47.102688,14.37447052,.0015422,98.8572,70.0585,172.0635,339.9471,0,U,30389,999,92802,.63919E-2,.19151E-3,0
FENGYUN 1C DEB,1999-025ADD,2024-12-30T16:23:08.851776,14.25630423,.0070947,98.8404,79.1987,94.4371,58.0598,0,U,30390,999,92431,.49504E-2,.12017E-3,0
FENGYUN 1C DEB,1999-025ADE,2024-12-31T20:46:38.388576,14.14251638,.0074816,98.8121,51.5605,168.8703,271.4699,0,U,30391,999,91986,.36638E-2,.7146E-4,0
FENGYUN 1C DEB,1999-025ADF,2024-12-31T19:51:16.146144,14.06444295,.0182786,98.8100,28.4919,249.9357,286.3710,0,U,30392,999,91806,.21767E-2,.4142E-4,0
FENGYUN 1C DEB,1999-025ADG,2024-12-30T15:48:57.442752,13.98785899,.0072048,99.2115,56.6476,131.5888,351.6885,0,U,30393,999,91477,.36761E-3,.496E-5,0
FENGYUN 1C DEB,1999-025ADH,2024-12-30T19:04:50.314656,13.95407545,.0089037,99.4620,19.2799,320.0541,215.0534,0,U,30394,999,91264,.10521E-2,.1427E-4,0
FENGYUN 1C DEB,1999-025ADJ,2024-12-31T08:24:53.896320,13.96000210,.0160248,98.9528,25.5780,259.3278,112.2025,0,U,30395,999,91189,.18132E-2,.2723E-4,0
FENGYUN 1C DEB,1999-025ADK,2024-12-31T21:16:50.822976,13.87022132,.013436,98.2537,46.5898,6.9271,167.5637,0,U,30396,999,90784,.31634E-3,.361E-5,0
FENGYUN 1C DEB,1999-025ADL,2024-12-31T17:34:20.264736,13.96599075,.0153197,98.3720,178.4745,341.9705,136.2263,0,U,30397,999,90931,.31239E-2,.4738E-4,0
FENGYUN 1C DEB,1999-025ADM,2024-12-30T11:14:52.387296,13.78219147,.0174155,99.7446,247.1246,120.0499,52.9524,0,U,30398,999,89972,.91157E-3,.982E-5,0
FENGYUN 1C DEB,1999-025ADP,2024-12-30T17:14:59.377056,14.04539991,.0237339,99.1537,282.4414,222.9412,166.1028,0,U,30400,999,90633,.74842E-2,.15352E-3,0
FENGYUN 1C DEB,1999-025ADQ,2024-12-31T20:49:51.980736,14.27558018,.0108647,98.9959,228.4228,49.6442,311.4163,0,U,30401,999,93368,.47153E-3,.1189E-4,0
