FENGYUN 1C DEB          
1 30363U 99025ACA 24365.63701715  .00008839  00000+0  45211-2 0  9992
2 30363  99.0547  65.8829 0082322 301.8777  57.4403 14.14019900919134
FENGYUN 1C DEB          
1 30364U 99025ACB 24363.31582796  .00018269  00000+0  57738-2 0  9997
2 30364  98.1262 304.4386 0355986 255.0117 262.7262 14.09657468907048
FENGYUN 1C DEB          
1 30365U 99025ACC 24366.96375654  .00002267  00000+0  96791-3 0  9999
2 30365  98.6045   4.9648 0169100  29.6813   0.0294 14.18581505927098
FENGYUN 1C DEB          
1 30366U 99025ACD 24365.67843064  .00004294  00000+0  15809-2 0  9994
2 30366  98.9326 266.8633 0064391 153.1616 237.5395 14.31977577933535
FENGYUN 1C DEB          
1 30368U 99025ACF 24366.77174642  .00001060  00000+0  10119-2 0  9994
2 30368  99.1651 119.6116 0189077 140.0419  16.8562 13.75029713899067
FENGYUN 1C DEB          
1 30369U 99025ACG 24366.77087948  .00001116  00000+0  60726-3 0  9999
2 30369  98.7117   7.7635 0101026  99.3097  73.7252 14.11618746923640
FENGYUN 1C DEB          
1 30370U 99025ACH 24366.10523417  .00007585  00000+0  36038-2 0  9998
2 30370  99.0852  48.5109 0103387 222.2093 164.3626 14.16948562921812
FENGYUN 1C DEB          
1 30371U 99025ACJ 24366.61517480  .00007892  00000+0  32065-2 0  9995
2 30371  98.6077  48.6088 0007589 267.4269 260.5723 14.27809371929739
FENGYUN 1C DEB          
1 30374U 99025ACM 24366.78698142  .00024588  00000+0  57193-2 0  9991
2 30374  99.2931 184.1882 0044758 130.9355 241.6502 14.54237925938819
FENGYUN 1C DEB          
1 30377U 99025ACQ 24366.54168667  .00001653  00000+0  11098-2 0  9994
2 30377  98.9232  29.5991 0119696 144.4389  10.8149 13.98659601913661
FENGYUN 1C DEB          
1 30379U 99025ACS 24366.85355413  .00001316  00000+0  80071-3 0  9991
2 30379  98.7797  25.5489 0036825 172.7208   0.8777 14.07535453919505
FENGYUN 1C DEB          
1 30380U 99025ACT 24366.54236473  .00003686  00000+0  79363-3 0  9997
2 30380  98.9535  27.0750 0181394 178.1649 182.0248 14.49380029945629
FENGYUN 1C DEB          
1 30381U 99025ACU 24364.32298944  .00004340  00000+0  24044-2 0  9996
2 30381  98.8443  38.6607 0054546 341.9478  17.9755 14.11012966872498
FENGYUN 1C DEB          
1 30382U 99025ACV 24366.40170441  .00007369  00000+0  28824-2 0  9993
2 30382  98.5344  49.2212 0159634 287.5895  81.2875 14.23054803926056
FENGYUN 1C DEB          
1 30385U 99025ACY 24366.93985010  .00003290  00000+0  10121-2 0  9990
2 30385  99.0867   1.4660 0126761 224.3707 166.8719 14.37745607937983
FENGYUN 1C DEB          
1 30386U 99025ACZ 24366.75744088  .00009422  00000+0  10237-1 0  9999
2 30386  98.6954 296.7387 0312107 331.5625  55.1313 13.53966438881445
FENGYUN 1C DEB          
1 30387U 99025ADA 24366.83914787  .00001790  00000+0  95615-3 0  9999
2 30387  98.6784  25.8673 0001170  59.6007 115.1255 14.14488874924332
FENGYUN 1C DEB          
1 30388U 99025ADB 24366.75762576  .00004557  00000+0  17392-2 0  9997
2 30388  98.6289  30.7123 0225078 341.9787  68.7869 14.18273797925251
FENGYUN 1C DEB          
1 30389U 99025ADC 24366.66929517  .00019151  00000+0  63919-2 0  9990
2 30389  98.8572  70.0585 0015422 172.0635 339.9471 14.37447052928021
FENGYUN 1C DEB          
1 30390U 99025ADD 24365.68274134  .00012017  00000+0  49504-2 0  9999
2 30390  98.8404  79.1987 0070947  94.4371  58.0598 14.25630423924310
FENGYUN 1C DEB          
1 30391U 99025ADE 24366.86572209  .00007146  00000+0  36638-2 0  9996
2 30391  98.8121  51.5605 0074816 168.8703 271.4699 14.14251638919864
FENGYUN 1C DEB          
1 30392U 99025ADF 24366.82727021  .00004142  00000+0  21767-2 0  9997
2 30392  98.8100  28.4919 0182786 249.9357 286.3710 14.06444295918069
FENGYUN 1C DEB          
1 30393U 99025ADG 24365.65899818  .00000496  00000+0  36761-3 0  9991
2 30393  99.2115  56.6476 0072048 131.5888 351.6885 13.98785899914777
FENGYUN 1C DEB          
1 30394U 99025ADH 24365.79502679  .00001427  00000+0  10521-2 0  9993
2 30394  99.4620  19.2799 0089037 320.0541 215.0534 13.95407545912645
FENGYUN 1C DEB          
1 30395U 99025ADJ 24366.35062380  .00002723  00000+0  18132-2 0  9993
2 30395  98.9528  25.5780 0160248 259.3278 112.2025 13.96000210911890
FENGYUN 1C DEB          
1 30396U 99025ADK 24366.88669934  .00000361  00000+0  31634-3 0  9999
2 30396  98.2537  46.5898 0134360   6.9271 167.5637 13.87022132907841
FENGYUN 1C DEB          
1 30397U 99025ADL 24366.73217899  .00004738  00000+0  31239-2 0  9995
2 30397  98.3720 178.4745 0153197 341.9705 136.2263 13.96599075909313
FENGYUN 1C DEB          
1 30398U 99025ADM 24365.46866189  .00000982  00000+0  91157-3 0  9990
2 30398  99.7446 247.1246 0174155 120.0499  52.9524 13.78219147899723
FENGYUN 1C DEB          
1 30400U 99025ADP 24365.71874279  .00015352  00000+0  74842-2 0  9999
2 30400  99.1537 282.4414 0237339 222.9412 166.1028 14.04539991906337
FENGYUN 1C DEB          
1 30401U 99025ADQ 24366.86796274  .00001189  00000+0  47153-3 0  9994
2 30401  98.9959 228.4228 0108647  49.6442 311.4163 14.27558018933681
